{"type": "FeatureCollection", "features": [ {"type": "Feature", "properties": {"norad_id": 66498, "name": "STARLINK-35907", "group": "last-30-days", "lat": -31.439004777020166, "lon": 136.68514324819859, "alt_km": 360.77013087593696, "timestamp": "2025-12-03T19:33:05.756483+00:00", "meta": {"OBJECT_NAME": "STARLINK-35907", "OBJECT_ID": "2025-263P", "EPOCH": "2025-12-03T12:00:02.998944", "MEAN_MOTION": 15.71359734, "ECCENTRICITY": 0.0001873, "INCLINATION": 42.9992, "RA_OF_ASC_NODE": 179.5832, "ARG_OF_PERICENTER": 258.5148, "MEAN_ANOMALY": 70.4622, "EPHEMERIS_TYPE": 0, "CLASSIFICATION_TYPE": "U", "NORAD_CAT_ID": 66498, "ELEMENT_SET_NO": 999, "REV_AT_EPOCH": 415, "BSTAR": -0.016762, "MEAN_MOTION_DOT": -0.01946738, "MEAN_MOTION_DDOT": 0}, "tle": {"line1": "1 66498U 25263P   25337.50003471 -.01946738  00000+0 -16762-1 0  9993", "line2": "2 66498  42.9992 179.5832 0001873 258.5148  70.4622 15.71359734  4153"}}, "geometry": {"type": "Point", "coordinates": [136.68514324819859, -31.439004777020166]}}, {"type": "Feature", "properties": {"norad_id": 66499, "name": "STARLINK-35816", "group": "last-30-days", "lat": -29.412159093089063, "lon": 140.44609681082576, "alt_km": 360.65729233225557, "timestamp": "2025-12-03T19:33:05.756493+00:00", "meta": {"OBJECT_NAME": "STARLINK-35816", "OBJECT_ID": "2025-263Q", "EPOCH": "2025-12-03T12:00:02.998944", "MEAN_MOTION": 15.71360248, "ECCENTRICITY": 0.0001864, "INCLINATION": 42.9985, "RA_OF_ASC_NODE": 179.5733, "ARG_OF_PERICENTER": 261.5467, "MEAN_ANOMALY": 71.2655, "EPHEMERIS_TYPE": 0, "CLASSIFICATION_TYPE": "U", "NORAD_CAT_ID": 66499, "ELEMENT_SET_NO": 999, "REV_AT_EPOCH": 415, "BSTAR": -0.016771, "MEAN_MOTION_DOT": -0.01947711, "MEAN_MOTION_DDOT": 0}, "tle": {"line1": "1 66499U 25263Q   25337.50003471 -.01947711  00000+0 -16771-1 0  9996", "line2": "2 66499  42.9985 179.5733 0001864 261.5467  71.2655 15.71360248  4151"}}, "geometry": {"type": "Point", "coordinates": [140.44609681082576, -29.412159093089063]}}, {"type": "Feature", "properties": {"norad_id": 66500, "name": "STARLINK-35894", "group": "last-30-days", "lat": -31.399677429905882, "lon": 136.76060523689412, "alt_km": 363.7664296207786, "timestamp": "2025-12-03T19:33:05.756502+00:00", "meta": {"OBJECT_NAME": "STARLINK-35894", "OBJECT_ID": "2025-263R", "EPOCH": "2025-12-03T12:00:02.998944", "MEAN_MOTION": 15.7066158, "ECCENTRICITY": 0.0001827, "INCLINATION": 42.9988, "RA_OF_ASC_NODE": 179.5801, "ARG_OF_PERICENTER": 258.9801, "MEAN_ANOMALY": 71.0672, "EPHEMERIS_TYPE": 0, "CLASSIFICATION_TYPE": "U", "NORAD_CAT_ID": 66500, "ELEMENT_SET_NO": 999, "REV_AT_EPOCH": 415, "BSTAR": -0.021885, "MEAN_MOTION_DOT": -0.02445387, "MEAN_MOTION_DDOT": 0}, "tle": {"line1": "1 66500U 25263R   25337.50003471 -.02445387  00000+0 -21885-1 0  9994", "line2": "2 66500  42.9988 179.5801 0001827 258.9801  71.0672 15.70661580  4153"}}, "geometry": {"type": "Point", "coordinates": [136.76060523689412, -31.399677429905882]}}, {"type": "Feature", "properties": {"norad_id": 66501, "name": "STARLINK-35897", "group": "last-30-days", "lat": -28.360514070617814, "lon": 142.26907963865747, "alt_km": 360.7098906288729, "timestamp": "2025-12-03T19:33:05.756514+00:00", "meta": {"OBJECT_NAME": "STARLINK-35897", "OBJECT_ID": "2025-263S", "EPOCH": "2025-12-03T12:00:02.998944", "MEAN_MOTION": 15.71357862, "ECCENTRICITY": 0.0001774, "INCLINATION": 42.999, "RA_OF_ASC_NODE": 179.5683, "ARG_OF_PERICENTER": 259.3925, "MEAN_ANOMALY": 75.3375, "EPHEMERIS_TYPE": 0, "CLASSIFICATION_TYPE": "U", "NORAD_CAT_ID": 66501, "ELEMENT_SET_NO": 999, "REV_AT_EPOCH": 415, "BSTAR": -0.016732, "MEAN_MOTION_DOT": -0.01943478, "MEAN_MOTION_DDOT": 0}, "tle": {"line1": "1 66501U 25263S   25337.50003471 -.01943478  00000+0 -16732-1 0  9993", "line2": "2 66501  42.9990 179.5683 0001774 259.3925  75.3375 15.71357862  4151"}}, "geometry": {"type": "Point", "coordinates": [142.26907963865747, -28.360514070617814]}}, {"type": "Feature", "properties": {"norad_id": 66502, "name": "STARLINK-35922", "group": "last-30-days", "lat": -25.033230124318823, "lon": 147.57746929125065, "alt_km": 360.53890279104326, "timestamp": "2025-12-03T19:33:05.756526+00:00", "meta": {"OBJECT_NAME": "STARLINK-35922", "OBJECT_ID": "2025-263T", "EPOCH": "2025-12-03T12:00:02.998944", "MEAN_MOTION": 15.71485419, "ECCENTRICITY": 0.0001977, "INCLINATION": 42.9992, "RA_OF_ASC_NODE": 179.5532, "ARG_OF_PERICENTER": 262.6944, "MEAN_ANOMALY": 77.7913, "EPHEMERIS_TYPE": 0, "CLASSIFICATION_TYPE": "U", "NORAD_CAT_ID": 66502, "ELEMENT_SET_NO": 999, "REV_AT_EPOCH": 415, "BSTAR": -0.018732, "MEAN_MOTION_DOT": -0.02156403, "MEAN_MOTION_DDOT": 0}, "tle": {"line1": "1 66502U 25263T   25337.50003471 -.02156403  00000+0 -18732-1 0  9991", "line2": "2 66502  42.9992 179.5532 0001977 262.6944  77.7913 15.71485419  4154"}}, "geometry": {"type": "Point", "coordinates": [147.57746929125065, -25.033230124318823]}}, {"type": "Feature", "properties": {"norad_id": 66503, "name": "STARLINK-35917", "group": "last-30-days", "lat": -22.768848685046976, "lon": 150.8749208210955, "alt_km": 360.15215667401117, "timestamp": "2025-12-03T19:33:05.756539+00:00", "meta": {"OBJECT_NAME": "STARLINK-35917", "OBJECT_ID": "2025-263U", "EPOCH": "2025-12-03T06:00:02.999808", "MEAN_MOTION": 15.72454852, "ECCENTRICITY": 0.00016606, "INCLINATION": 42.999, "RA_OF_ASC_NODE": 181.0536, "ARG_OF_PERICENTER": 271.6287, "MEAN_ANOMALY": 96.2485, "EPHEMERIS_TYPE": 0, "CLASSIFICATION_TYPE": "U", "NORAD_CAT_ID": 66503, "ELEMENT_SET_NO": 999, "REV_AT_EPOCH": 411, "BSTAR": -0.016446633, "MEAN_MOTION_DOT": -0.01995302, "MEAN_MOTION_DDOT": 0}, "tle": {"line1": "1 66503U 25263U   25337.25003472 -.01995302  00000+0 -16447-1 0  9994", "line2": "2 66503  42.9990 181.0536 0001660 271.6287  96.2485 15.72454852  4118"}}, "geometry": {"type": "Point", "coordinates": [150.8749208210955, -22.768848685046976]}}, {"type": "Feature", "properties": {"norad_id": 66504, "name": "STARLINK-35916", "group": "last-30-days", "lat": 42.865015833601504, "lon": -86.67199867568817, "alt_km": 409.03001461519216, "timestamp": "2025-12-03T19:33:05.756549+00:00", "meta": {"OBJECT_NAME": "STARLINK-35916", "OBJECT_ID": "2025-263V", "EPOCH": "2025-12-03T12:00:02.998944", "MEAN_MOTION": 15.52566157, "ECCENTRICITY": 0.0001716, "INCLINATION": 42.9991, "RA_OF_ASC_NODE": 180.0651, "ARG_OF_PERICENTER": 279.9146, "MEAN_ANOMALY": 214.25, "EPHEMERIS_TYPE": 0, "CLASSIFICATION_TYPE": "U", "NORAD_CAT_ID": 66504, "ELEMENT_SET_NO": 999, "REV_AT_EPOCH": 415, "BSTAR": -0.045601, "MEAN_MOTION_DOT": -0.02543699, "MEAN_MOTION_DDOT": 0}, "tle": {"line1": "1 66504U 25263V   25337.50003471 -.02543699  00000+0 -45601-1 0  9995", "line2": "2 66504  42.9991 180.0651 0001716 279.9146 214.2500 15.52566157  4158"}}, "geometry": {"type": "Point", "coordinates": [-86.67199867568817, 42.865015833601504]}}, {"type": "Feature", "properties": {"norad_id": 66505, "name": "STARLINK-34766", "group": "last-30-days", "lat": -27.28601311029379, "lon": 144.0534010694191, "alt_km": 360.700798496443, "timestamp": "2025-12-03T19:33:05.756559+00:00", "meta": {"OBJECT_NAME": "STARLINK-34766", "OBJECT_ID": "2025-263W", "EPOCH": "2025-12-03T12:00:02.998944", "MEAN_MOTION": 15.71356337, "ECCENTRICITY": 0.0001684, "INCLINATION": 42.9991, "RA_OF_ASC_NODE": 179.5632, "ARG_OF_PERICENTER": 259.4448, "MEAN_ANOMALY": 77.1996, "EPHEMERIS_TYPE": 0, "CLASSIFICATION_TYPE": "U", "NORAD_CAT_ID": 66505, "ELEMENT_SET_NO": 999, "REV_AT_EPOCH": 415, "BSTAR": -0.016676, "MEAN_MOTION_DOT": -0.01937501, "MEAN_MOTION_DDOT": 0}, "tle": {"line1": "1 66505U 25263W   25337.50003471 -.01937501  00000+0 -16676-1 0  9994", "line2": "2 66505  42.9991 179.5632 0001684 259.4448  77.1996 15.71356337  4156"}}, "geometry": {"type": "Point", "coordinates": [144.0534010694191, -27.28601311029379]}}, {"type": "Feature", "properties": {"norad_id": 66506, "name": "STARLINK-34765", "group": "last-30-days", "lat": -26.18765716407417, "lon": 145.80614263629678, "alt_km": 360.6673079934699, "timestamp": "2025-12-03T19:33:05.756569+00:00", "meta": {"OBJECT_NAME": "STARLINK-34765", "OBJECT_ID": "2025-263X", "EPOCH": "2025-12-03T12:00:02.998944", "MEAN_MOTION": 15.71356342, "ECCENTRICITY": 0.0001644, "INCLINATION": 42.9991, "RA_OF_ASC_NODE": 179.5589, "ARG_OF_PERICENTER": 259.8769, "MEAN_ANOMALY": 78.685, "EPHEMERIS_TYPE": 0, "CLASSIFICATION_TYPE": "U", "NORAD_CAT_ID": 66506, "ELEMENT_SET_NO": 999, "REV_AT_EPOCH": 415, "BSTAR": -0.01668, "MEAN_MOTION_DOT": -0.01937896, "MEAN_MOTION_DDOT": 0}, "tle": {"line1": "1 66506U 25263X   25337.50003471 -.01937896  00000+0 -16680-1 0  9997", "line2": "2 66506  42.9991 179.5589 0001644 259.8769  78.6850 15.71356342  4155"}}, "geometry": {"type": "Point", "coordinates": [145.80614263629678, -26.18765716407417]}}, {"type": "Feature", "properties": {"norad_id": 66507, "name": "STARLINK-34767", "group": "last-30-days", "lat": -23.92933163579247, "lon": 149.21218455979334, "alt_km": 360.4037208838845, "timestamp": "2025-12-03T19:33:05.756579+00:00", "meta": {"OBJECT_NAME": "STARLINK-34767", "OBJECT_ID": "2025-263Y", "EPOCH": "2025-12-03T12:00:02.998944", "MEAN_MOTION": 15.71353201, "ECCENTRICITY": 0.0001783, "INCLINATION": 42.9992, "RA_OF_ASC_NODE": 179.5482, "ARG_OF_PERICENTER": 265.349, "MEAN_ANOMALY": 77.0489, "EPHEMERIS_TYPE": 0, "CLASSIFICATION_TYPE": "U", "NORAD_CAT_ID": 66507, "ELEMENT_SET_NO": 999, "REV_AT_EPOCH": 415, "BSTAR": -0.016653, "MEAN_MOTION_DOT": -0.01935035, "MEAN_MOTION_DDOT": 0}, "tle": {"line1": "1 66507U 25263Y   25337.50003471 -.01935035  00000+0 -16653-1 0  9991", "line2": "2 66507  42.9992 179.5482 0001783 265.3490  77.0489 15.71353201  4158"}}, "geometry": {"type": "Point", "coordinates": [149.21218455979334, -23.92933163579247]}}]}